{
    "bodies": [
        {
            "name": "TNO-104",
            "mass": 0,
            "semi_major_axis": 185.546875,
            "eccentricity": 0.81015625,
            "inclination": 0.04431500053891852,
            "longitude_of_ascending_node": 5.634870705695942,
            "argument_of_perihelion": 3.3805449390252003,
            "mean_anomaly": 4.021502067323851
        },
        {
            "name": "TNO-105",
            "mass": 0,
            "semi_major_axis": 185.888671875,
            "eccentricity": 0.81025390625,
            "inclination": 0.044741106313331204,
            "longitude_of_ascending_node": 3.327884049021883,
            "argument_of_perihelion": 3.4871735438685367,
            "mean_anomaly": 4.3948570730070635
        },
        {
            "name": "TNO-106",
            "mass": 0,
            "semi_major_axis": 186.23046875,
            "eccentricity": 0.8103515625000001,
            "inclination": 0.04516721208774388,
            "longitude_of_ascending_node": 5.03448841409502,
            "argument_of_perihelion": 2.494205758655642,
            "mean_anomaly": 4.5428481358340775
        },
        {
            "name": "TNO-107",
            "mass": 0,
            "semi_major_axis": 186.572265625,
            "eccentricity": 0.8104492187500001,
            "inclination": 0.045593317862156556,
            "longitude_of_ascending_node": 3.827272082303464,
            "argument_of_perihelion": 2.719425813051804,
            "mean_anomaly": 3.094022940212327
        },
        {
            "name": "TNO-108",
            "mass": 0,
            "semi_major_axis": 186.9140625,
            "eccentricity": 0.810546875,
            "inclination": 0.04601942363656924,
            "longitude_of_ascending_node": 4.7869111721051185,
            "argument_of_perihelion": 1.9350496163027393,
            "mean_anomaly": 0.3520469008707126
        },
        {
            "name": "TNO-109",
            "mass": 0,
            "semi_major_axis": 187.255859375,
            "eccentricity": 0.81064453125,
            "inclination": 0.046445529410981914,
            "longitude_of_ascending_node": 3.133203806500572,
            "argument_of_perihelion": 5.048952141220631,
            "mean_anomaly": 1.543318459977878
        },
        {
            "name": "TNO-110",
            "mass": 0,
            "semi_major_axis": 187.59765625,
            "eccentricity": 0.8107421875,
            "inclination": 0.04687163518539459,
            "longitude_of_ascending_node": 5.693686699378759,
            "argument_of_perihelion": 5.4145653958160755,
            "mean_anomaly": 5.856567162634293
        },
        {
            "name": "TNO-111",
            "mass": 0,
            "semi_major_axis": 187.939453125,
            "eccentricity": 0.8108398437500001,
            "inclination": 0.04729774095980727,
            "longitude_of_ascending_node": 5.084515376859331,
            "argument_of_perihelion": 5.579858681064499,
            "mean_anomaly": 4.598675601932287
        },
        {
            "name": "TNO-112",
            "mass": 0,
            "semi_major_axis": 188.28125,
            "eccentricity": 0.8109375000000001,
            "inclination": 0.04772384673421995,
            "longitude_of_ascending_node": 5.44324335314387,
            "argument_of_perihelion": 5.819355994543194,
            "mean_anomaly": 4.520856146671096
        },
        {
            "name": "TNO-113",
            "mass": 0,
            "semi_major_axis": 188.623046875,
            "eccentricity": 0.81103515625,
            "inclination": 0.048149952508632625,
            "longitude_of_ascending_node": 3.775158997260372,
            "argument_of_perihelion": 2.0840911873813934,
            "mean_anomaly": 5.272644991393901
        },
        {
            "name": "TNO-114",
            "mass": 0,
            "semi_major_axis": 188.96484375,
            "eccentricity": 0.8111328125,
            "inclination": 0.04857605828304531,
            "longitude_of_ascending_node": 4.427157182028806,
            "argument_of_perihelion": 2.816101553000142,
            "mean_anomaly": 3.5575082960366426
        },
        {
            "name": "TNO-115",
            "mass": 0,
            "semi_major_axis": 189.306640625,
            "eccentricity": 0.81123046875,
            "inclination": 0.049002164057457984,
            "longitude_of_ascending_node": 4.021402638865373,
            "argument_of_perihelion": 2.5785647923805817,
            "mean_anomaly": 2.9128746215565937
        },
        {
            "name": "TNO-116",
            "mass": 0,
            "semi_major_axis": 189.6484375,
            "eccentricity": 0.8113281250000001,
            "inclination": 0.04942826983187066,
            "longitude_of_ascending_node": 1.8480788070153857,
            "argument_of_perihelion": 2.4954949620112803,
            "mean_anomaly": 0.3514291716603828
        },
        {
            "name": "TNO-117",
            "mass": 0,
            "semi_major_axis": 189.990234375,
            "eccentricity": 0.8114257812500001,
            "inclination": 0.049854375606283335,
            "longitude_of_ascending_node": 5.303457267969571,
            "argument_of_perihelion": 4.839922625503271,
            "mean_anomaly": 2.2394710604466295
        },
        {
            "name": "TNO-118",
            "mass": 0,
            "semi_major_axis": 190.33203125,
            "eccentricity": 0.8115234375,
            "inclination": 0.05028048138069602,
            "longitude_of_ascending_node": 5.589013952729644,
            "argument_of_perihelion": 2.6474412361349846,
            "mean_anomaly": 4.935395470637499
        },
        {
            "name": "TNO-119",
            "mass": 0,
            "semi_major_axis": 190.673828125,
            "eccentricity": 0.81162109375,
            "inclination": 0.050706587155108694,
            "longitude_of_ascending_node": 1.8012395556298395,
            "argument_of_perihelion": 2.4964655287785527,
            "mean_anomaly": 2.109910272161766
        },
        {
            "name": "TNO-120",
            "mass": 0,
            "semi_major_axis": 191.015625,
            "eccentricity": 0.81171875,
            "inclination": 0.05113269292952137,
            "longitude_of_ascending_node": 0.17428607223338544,
            "argument_of_perihelion": 4.957377064901126,
            "mean_anomaly": 2.5816155799331972
        },
        {
            "name": "TNO-121",
            "mass": 0,
            "semi_major_axis": 191.357421875,
            "eccentricity": 0.8118164062500001,
            "inclination": 0.05155879870393405,
            "longitude_of_ascending_node": 4.5334652279563254,
            "argument_of_perihelion": 5.54764037237179,
            "mean_anomaly": 5.950223742593854
        },
        {
            "name": "TNO-122",
            "mass": 0,
            "semi_major_axis": 191.69921875,
            "eccentricity": 0.8119140625000001,
            "inclination": 0.05198490447834673,
            "longitude_of_ascending_node": 5.728675804451762,
            "argument_of_perihelion": 1.7700668373959694,
            "mean_anomaly": 1.6656620623037286
        },
        {
            "name": "TNO-123",
            "mass": 0,
            "semi_major_axis": 192.041015625,
            "eccentricity": 0.81201171875,
            "inclination": 0.052411010252759405,
            "longitude_of_ascending_node": 2.9871603142552,
            "argument_of_perihelion": 3.3287130734687422,
            "mean_anomaly": 4.731460319326199
        },
        {
            "name": "TNO-124",
            "mass": 0,
            "semi_major_axis": 192.3828125,
            "eccentricity": 0.812109375,
            "inclination": 0.05283711602717209,
            "longitude_of_ascending_node": 2.643818929894555,
            "argument_of_perihelion": 0.3276730786587734,
            "mean_anomaly": 4.567546294279693
        },
        {
            "name": "TNO-125",
            "mass": 0,
            "semi_major_axis": 192.724609375,
            "eccentricity": 0.81220703125,
            "inclination": 0.05326322180158476,
            "longitude_of_ascending_node": 2.7811044278809227,
            "argument_of_perihelion": 2.3210581327641306,
            "mean_anomaly": 2.033152865659403
        },
        {
            "name": "TNO-126",
            "mass": 0,
            "semi_major_axis": 193.06640625,
            "eccentricity": 0.8123046875000001,
            "inclination": 0.05368932757599744,
            "longitude_of_ascending_node": 1.9082372693071243,
            "argument_of_perihelion": 0.6245065406388078,
            "mean_anomaly": 4.13178462091549
        },
        {
            "name": "TNO-127",
            "mass": 0,
            "semi_major_axis": 193.408203125,
            "eccentricity": 0.8124023437500001,
            "inclination": 0.05411543335041012,
            "longitude_of_ascending_node": 0.6237210585359413,
            "argument_of_perihelion": 4.69329396048546,
            "mean_anomaly": 0.680321492259296
        },
        {
            "name": "TNO-128",
            "mass": 0,
            "semi_major_axis": 193.75,
            "eccentricity": 0.8125,
            "inclination": 0.0545415391248228,
            "longitude_of_ascending_node": 5.408291469123726,
            "argument_of_perihelion": 0.3123972721051427,
            "mean_anomaly": 3.8528955081767804
        },
        {
            "name": "TNO-129",
            "mass": 0,
            "semi_major_axis": 194.091796875,
            "eccentricity": 0.81259765625,
            "inclination": 0.054967644899235474,
            "longitude_of_ascending_node": 2.349527647625208,
            "argument_of_perihelion": 2.2914054219858397,
            "mean_anomaly": 3.7960515666925203
        }
    ]
}